TIANMU-1 07             
1 57399U 23101A   26065.57454230  .00008352  00000+0  29795-3 0  9991
2 57399  97.2728 118.5929 0004609 142.4105 217.7458 15.29118809145964
STARLINK-35705          
1 67039U 25294K   26068.96895891  .00032079  00000+0  11698-2 0  9991
2 67039  43.0037  36.3444 0001491 249.2115 110.8577 15.27590340 14849
